{"type": "FeatureCollection", "features": [ {"type": "Feature", "properties": {"norad_id": 39574, "name": "GPM-CORE", "group": "resource", "lat": 41.99477662613334, "lon": 24.16122917868987, "alt_km": 431.11244515656745, "timestamp": "2025-12-07T20:38:13.734488+00:00", "meta": {"OBJECT_NAME": "GPM-CORE", "OBJECT_ID": "2014-009C", "EPOCH": "2025-12-07T06:05:15.462816", "MEAN_MOTION": 15.45363162, "ECCENTRICITY": 0.00105235, "INCLINATION": 64.974, "RA_OF_ASC_NODE": 231.0644, "ARG_OF_PERICENTER": 269.7953, "MEAN_ANOMALY": 90.1982, "EPHEMERIS_TYPE": 0, "CLASSIFICATION_TYPE": "U", "NORAD_CAT_ID": 39574, "ELEMENT_SET_NO": 999, "REV_AT_EPOCH": 66816, "BSTAR": 0.00044707692, "MEAN_MOTION_DOT": 0.00021316, "MEAN_MOTION_DDOT": 0}, "tle": {"line1": "1 39574U 14009C   25341.25365119  .00021316  00000+0  44708-3 0  9997", "line2": "2 39574  64.9740 231.0644 0010523 269.7953  90.1982 15.45363162668164"}}, "geometry": {"type": "Point", "coordinates": [24.16122917868987, 41.99477662613334]}}, {"type": "Feature", "properties": {"norad_id": 39634, "name": "SENTINEL-1A", "group": "resource", "lat": 63.42363307082342, "lon": -29.53797900308104, "alt_km": 688.7541478162348, "timestamp": "2025-12-07T20:38:13.734499+00:00", "meta": {"OBJECT_NAME": "SENTINEL-1A", "OBJECT_ID": "2014-016A", "EPOCH": "2025-12-07T07:10:34.945248", "MEAN_MOTION": 14.59199239, "ECCENTRICITY": 0.00012456, "INCLINATION": 98.1803, "RA_OF_ASC_NODE": 346.6208, "ARG_OF_PERICENTER": 89.0861, "MEAN_ANOMALY": 271.0481, "EPHEMERIS_TYPE": 0, "CLASSIFICATION_TYPE": "U", "NORAD_CAT_ID": 39634, "ELEMENT_SET_NO": 999, "REV_AT_EPOCH": 62203, "BSTAR": 9.0704154e-05, "MEAN_MOTION_DOT": 3.82e-06, "MEAN_MOTION_DDOT": 0}, "tle": {"line1": "1 39634U 14016A   25341.29901557  .00000382  00000+0  90704-4 0  9996", "line2": "2 39634  98.1803 346.6208 0001245  89.0861 271.0481 14.59199239622037"}}, "geometry": {"type": "Point", "coordinates": [-29.53797900308104, 63.42363307082342]}}, {"type": "Feature", "properties": {"norad_id": 39731, "name": "KAZEOSAT 1", "group": "resource", "lat": -20.088538805486227, "lon": 56.9535290201061, "alt_km": 757.230960134164, "timestamp": "2025-12-07T20:38:13.734508+00:00", "meta": {"OBJECT_NAME": "KAZEOSAT 1", "OBJECT_ID": "2014-024A", "EPOCH": "2025-12-07T07:24:32.715072", "MEAN_MOTION": 14.42057999, "ECCENTRICITY": 0.00010723, "INCLINATION": 98.3441, "RA_OF_ASC_NODE": 53.3379, "ARG_OF_PERICENTER": 99.8646, "MEAN_ANOMALY": 260.2664, "EPHEMERIS_TYPE": 0, "CLASSIFICATION_TYPE": "U", "NORAD_CAT_ID": 39731, "ELEMENT_SET_NO": 999, "REV_AT_EPOCH": 61090, "BSTAR": 0.0001694815, "MEAN_MOTION_DOT": 5.14e-06, "MEAN_MOTION_DDOT": 0}, "tle": {"line1": "1 39731U 14024A   25341.30871198  .00000514  00000+0  16948-3 0  9996", "line2": "2 39731  98.3441  53.3379 0001072  99.8646 260.2664 14.42057999610908"}}, "geometry": {"type": "Point", "coordinates": [56.9535290201061, -20.088538805486227]}}, {"type": "Feature", "properties": {"norad_id": 39766, "name": "ALOS-2", "group": "resource", "lat": -70.47742517904595, "lon": 99.904122776785, "alt_km": 639.3291401134857, "timestamp": "2025-12-07T20:38:13.734519+00:00", "meta": {"OBJECT_NAME": "ALOS-2", "OBJECT_ID": "2014-029A", "EPOCH": "2025-12-07T06:21:13.934304", "MEAN_MOTION": 14.79458027, "ECCENTRICITY": 0.00014582, "INCLINATION": 97.9233, "RA_OF_ASC_NODE": 76.1891, "ARG_OF_PERICENTER": 104.9983, "MEAN_ANOMALY": 255.139, "EPHEMERIS_TYPE": 0, "CLASSIFICATION_TYPE": "U", "NORAD_CAT_ID": 39766, "ELEMENT_SET_NO": 999, "REV_AT_EPOCH": 62320, "BSTAR": 0.00046763648, "MEAN_MOTION_DOT": 3.441e-05, "MEAN_MOTION_DDOT": 0}, "tle": {"line1": "1 39766U 14029A   25341.26474461  .00003441  00000+0  46764-3 0  9997", "line2": "2 39766  97.9233  76.1891 0001458 104.9983 255.1390 14.79458027623205"}}, "geometry": {"type": "Point", "coordinates": [99.904122776785, -70.47742517904595]}}, {"type": "Feature", "properties": {"norad_id": 40010, "name": "KAZEOSAT 2", "group": "resource", "lat": 78.8568961166538, "lon": 48.76206426499885, "alt_km": 608.8602926935919, "timestamp": "2025-12-07T20:38:13.734529+00:00", "meta": {"OBJECT_NAME": "KAZEOSAT 2", "OBJECT_ID": "2014-033A", "EPOCH": "2025-12-07T07:15:36.413856", "MEAN_MOTION": 14.85154547, "ECCENTRICITY": 0.00074312, "INCLINATION": 97.5515, "RA_OF_ASC_NODE": 185.8978, "ARG_OF_PERICENTER": 226.6097, "MEAN_ANOMALY": 133.45, "EPHEMERIS_TYPE": 0, "CLASSIFICATION_TYPE": "U", "NORAD_CAT_ID": 40010, "ELEMENT_SET_NO": 999, "REV_AT_EPOCH": 62047, "BSTAR": 0.00017046304, "MEAN_MOTION_DOT": 1.41e-05, "MEAN_MOTION_DDOT": 0}, "tle": {"line1": "1 40010U 14033A   25341.30250479  .00001410  00000+0  17046-3 0  9997", "line2": "2 40010  97.5515 185.8978 0007431 226.6097 133.4500 14.85154547620471"}}, "geometry": {"type": "Point", "coordinates": [48.76206426499885, 78.8568961166538]}}, {"type": "Feature", "properties": {"norad_id": 40011, "name": "HODOYOSHI-4", "group": "resource", "lat": 34.23078333430668, "lon": -3.844066356078169, "alt_km": 598.7494978208524, "timestamp": "2025-12-07T20:38:13.734539+00:00", "meta": {"OBJECT_NAME": "HODOYOSHI-4", "OBJECT_ID": "2014-033B", "EPOCH": "2025-12-07T07:04:05.174112", "MEAN_MOTION": 14.87451958, "ECCENTRICITY": 0.00228527, "INCLINATION": 97.5416, "RA_OF_ASC_NODE": 170.4471, "ARG_OF_PERICENTER": 219.1624, "MEAN_ANOMALY": 140.7941, "EPHEMERIS_TYPE": 0, "CLASSIFICATION_TYPE": "U", "NORAD_CAT_ID": 40011, "ELEMENT_SET_NO": 999, "REV_AT_EPOCH": 62027, "BSTAR": 0.00035961496, "MEAN_MOTION_DOT": 3.22e-05, "MEAN_MOTION_DDOT": 0}, "tle": {"line1": "1 40011U 14033B   25341.29450433  .00003220  00000+0  35961-3 0  9995", "line2": "2 40011  97.5416 170.4471 0022852 219.1624 140.7941 14.87451958620273"}}, "geometry": {"type": "Point", "coordinates": [-3.844066356078169, 34.23078333430668]}}, {"type": "Feature", "properties": {"norad_id": 40013, "name": "DEIMOS-2", "group": "resource", "lat": -26.365513215300414, "lon": 34.022547757746324, "alt_km": 594.8064944263115, "timestamp": "2025-12-07T20:38:13.734549+00:00", "meta": {"OBJECT_NAME": "DEIMOS-2", "OBJECT_ID": "2014-033D", "EPOCH": "2025-12-07T06:50:47.664960", "MEAN_MOTION": 14.92938422, "ECCENTRICITY": 0.00010086, "INCLINATION": 97.6071, "RA_OF_ASC_NODE": 217.2652, "ARG_OF_PERICENTER": 93.6615, "MEAN_ANOMALY": 266.472, "EPHEMERIS_TYPE": 0, "CLASSIFICATION_TYPE": "U", "NORAD_CAT_ID": 40013, "ELEMENT_SET_NO": 999, "REV_AT_EPOCH": 60908, "BSTAR": 0.00041642966, "MEAN_MOTION_DOT": 4.268e-05, "MEAN_MOTION_DDOT": 0}, "tle": {"line1": "1 40013U 14033D   25341.28527390  .00004268  00000+0  41643-3 0  9990", "line2": "2 40013  97.6071 217.2652 0001008  93.6615 266.4720 14.92938422609088"}}, "geometry": {"type": "Point", "coordinates": [34.022547757746324, -26.365513215300414]}}, {"type": "Feature", "properties": {"norad_id": 40015, "name": "HODOYOSHI-3", "group": "resource", "lat": 61.35415761288116, "lon": -17.907433700805274, "alt_km": 626.9924811215487, "timestamp": "2025-12-07T20:38:13.734559+00:00", "meta": {"OBJECT_NAME": "HODOYOSHI-3", "OBJECT_ID": "2014-033F", "EPOCH": "2025-12-07T00:41:52.181952", "MEAN_MOTION": 14.84776118, "ECCENTRICITY": 0.00318266, "INCLINATION": 97.6196, "RA_OF_ASC_NODE": 147.1127, "ARG_OF_PERICENTER": 267.4936, "MEAN_ANOMALY": 92.2635, "EPHEMERIS_TYPE": 0, "CLASSIFICATION_TYPE": "U", "NORAD_CAT_ID": 40015, "ELEMENT_SET_NO": 999, "REV_AT_EPOCH": 61910, "BSTAR": 0.00035257459, "MEAN_MOTION_DOT": 2.965e-05, "MEAN_MOTION_DDOT": 0}, "tle": {"line1": "1 40015U 14033F   25341.02907618  .00002965  00000+0  35257-3 0  9995", "line2": "2 40015  97.6196 147.1127 0031826 267.4936  92.2635 14.84776118619101"}}, "geometry": {"type": "Point", "coordinates": [-17.907433700805274, 61.35415761288116]}}, {"type": "Feature", "properties": {"norad_id": 40053, "name": "SPOT 7", "group": "resource", "lat": -79.02664600476474, "lon": 176.85060964861083, "alt_km": 699.2332197166106, "timestamp": "2025-12-07T20:38:13.734569+00:00", "meta": {"OBJECT_NAME": "SPOT 7", "OBJECT_ID": "2014-034A", "EPOCH": "2025-12-07T06:17:12.516288", "MEAN_MOTION": 14.60723459, "ECCENTRICITY": 0.00015214, "INCLINATION": 98.0914, "RA_OF_ASC_NODE": 43.4636, "ARG_OF_PERICENTER": 94.5247, "MEAN_ANOMALY": 265.6128, "EPHEMERIS_TYPE": 0, "CLASSIFICATION_TYPE": "U", "NORAD_CAT_ID": 40053, "ELEMENT_SET_NO": 999, "REV_AT_EPOCH": 60911, "BSTAR": 0.00023970439, "MEAN_MOTION_DOT": 1.123e-05, "MEAN_MOTION_DDOT": 0}, "tle": {"line1": "1 40053U 14034A   25341.26195042  .00001123  00000+0  23970-3 0  9998", "line2": "2 40053  98.0914  43.4636 0001521  94.5247 265.6128 14.60723459609119"}}, "geometry": {"type": "Point", "coordinates": [176.85060964861083, -79.02664600476474]}}, {"type": "Feature", "properties": {"norad_id": 40072, "name": "SKYSAT-B", "group": "resource", "lat": 81.57492748304801, "lon": -171.53630668350408, "alt_km": 597.8084059674411, "timestamp": "2025-12-07T20:38:13.734579+00:00", "meta": {"OBJECT_NAME": "SKYSAT-B", "OBJECT_ID": "2014-037D", "EPOCH": "2025-12-07T05:41:51.201888", "MEAN_MOTION": 14.87295534, "ECCENTRICITY": 0.00056979, "INCLINATION": 98.3603, "RA_OF_ASC_NODE": 284.6528, "ARG_OF_PERICENTER": 166.9125, "MEAN_ANOMALY": 193.2239, "EPHEMERIS_TYPE": 0, "CLASSIFICATION_TYPE": "U", "NORAD_CAT_ID": 40072, "ELEMENT_SET_NO": 999, "REV_AT_EPOCH": 61742, "BSTAR": 0.00033583181, "MEAN_MOTION_DOT": 2.97e-05, "MEAN_MOTION_DDOT": 0}, "tle": {"line1": "1 40072U 14037D   25341.23739817  .00002970  00000+0  33583-3 0  9995", "line2": "2 40072  98.3603 284.6528 0005697 166.9125 193.2239 14.87295534617423"}}, "geometry": {"type": "Point", "coordinates": [-171.53630668350408, 81.57492748304801]}}]}